{
    "type": "FeatureCollection",
    "features": [
      {
        "type": "Feature",
        "properties": {
          "omr": null,
          "namn": "SE2",
          "bolag": null,
          "snitt": 2,
          "id": "SE2",
          "center": [63.529641695, 16.055141751]
        },
        "geometry": {
          "type": "Polygon",
          "coordinates": [[[12.3355, 62.26124], [12.15278, 63.59495], [13.97061, 64.009], [15.45656, 66.34526], [21.05404, 64.15592], [17.48995, 62.3324], [17.05818, 60.80894], [12.3355, 62.26124]]]
        }
      },
      {
        "type": "Feature",
        "properties": {
          "omr": null,
          "namn": "SE4",
          "bolag": null,
          "snitt": 4,
          "id": "SE4",
          "center": [56.563357819, 14.423021509]
        },
        "geometry": {
          "type": "MultiPolygon",
          "coordinates": [
            [[[16.58989, 57.32738], [15.80008, 56.01206], [12.79661, 55.36786], [12.64652, 57.22613], [16.58989, 57.32738]]],
            [[[16.42172, 56.19697], [16.38764, 56.60429], [17.09485, 57.37335], [17.16419, 57.30635], [16.42172, 56.19697]]]
          ]
        }
      },
      {
        "type": "Feature",
        "properties": {
          "omr": null,
          "namn": "SE3",
          "bolag": null,
          "snitt": 3,
          "id": "SE3",
          "center": [59.283809344, 14.938546176]
        },
        "geometry": {
          "type": "MultiPolygon",
          "coordinates": [
            [[[19.26019, 57.99911], [18.92195, 57.39947], [18.13363, 56.90779], [18.10768, 57.53873], [19.26019, 57.99911]]],
            [[[13.87793, 57.47158], [12.26322, 56.98672], [11.0121, 58.52876], [12.54838, 60.1955], [12.28895, 62.25705], [18.80998, 60.56764], [19.50747, 59.50666], [17.07316, 58.59107], [16.62224, 57.3246], [13.87793, 57.47158]], [[13.60557, 57.39769], [13.60563, 57.39779], [13.60576, 57.39813], [13.60557, 57.39769]]]
          ]
        }
      },
      {
        "type": "Feature",
        "properties": {
          "omr": null,
          "namn": "SE1",
          "bolag": null,
          "snitt": 1,
          "id": "SE1",
          "center": [66.678200949, 20.158448485]
        },
        "geometry": {
          "type": "Polygon",
          "coordinates": [[[15.5478, 66.56368], [20.55412, 69.06113], [23.65757, 67.96147], [24.16069, 65.817], [20.07258, 64.21007], [15.5478, 66.56368]]]
        }
      }
    ]
  }
  