{
  "type": "FeatureCollection",
  "features": [
    {
      "type": "Feature",
      "properties": { "geo_id": "A", "geo_name": "Region A" },
      "geometry": {
        "type": "Polygon",
        "coordinates": [[[0, 0], [1, 0], [1, 1], [0, 1], [0, 0]]]
      }
    },
    {
      "type": "Feature",
      "properties": { "geo_id": "B", "geo_name": "Region B" },
      "geometry": {
        "type": "Polygon",
        "coordinates": [[[2, 0], [3, 0], [3, 1], [2, 1], [2, 0]]]
      }
    },
    {
      "type": "Feature",
      "properties": { "geo_id": "C", "geo_name": "Region C" },
      "geometry": {
        "type": "Polygon",
        "coordinates": [[[0, 2], [1, 2], [1, 3], [0, 3], [0, 2]]]
      }
    },
    {
      "type": "Feature",
      "properties": { "geo_id": "D", "geo_name": "Region D" },
      "geometry": {
        "type": "Polygon",
        "coordinates": [[[2, 2], [3, 2], [3, 3], [2, 3], [2, 2]]]
      }
    }
  ]
}
